[{"OBJECT_NAME":"KUIPER-00167","OBJECT_ID":"2025-217U","EPOCH":"2026-03-03T07:10:36.893568","MEAN_MOTION":14.79876642,"ECCENTRICITY":3.42e-5,"INCLINATION":51.8969,"RA_OF_ASC_NODE":73.8272,"ARG_OF_PERICENTER":27.1073,"MEAN_ANOMALY":332.9907,"EPHEMERIS_TYPE":0,"CLASSIFICATION_TYPE":"U","NORAD_CAT_ID":65780,"ELEMENT_SET_NO":999,"REV_AT_EPOCH":2389,"BSTAR":0.00068343,"MEAN_MOTION_DOT":4.986e-5,"MEAN_MOTION_DDOT":0},{"OBJECT_NAME":"KUIPER-00168","OBJECT_ID":"2025-217V","EPOCH":"2026-03-03T04:23:07.844352","MEAN_MOTION":14.79931355,"ECCENTRICITY":8.95e-5,"INCLINATION":51.9013,"RA_OF_ASC_NODE":56.8725,"ARG_OF_PERICENTER":82.0309,"MEAN_ANOMALY":278.0755,"EPHEMERIS_TYPE":0,"CLASSIFICATION_TYPE":"U","NORAD_CAT_ID":65781,"ELEMENT_SET_NO":999,"REV_AT_EPOCH":2412,"BSTAR":7.4253e-5,"MEAN_MOTION_DOT":3.45e-6,"MEAN_MOTION_DDOT":0},{"OBJECT_NAME":"KUIPER-00169","OBJECT_ID":"2025-217W","EPOCH":"2026-03-03T09:07:51.513312","MEAN_MOTION":14.79784099,"ECCENTRICITY":7.3e-5,"INCLINATION":51.9012,"RA_OF_ASC_NODE":61.0064,"ARG_OF_PERICENTER":93.2359,"MEAN_ANOMALY":266.8687,"EPHEMERIS_TYPE":0,"CLASSIFICATION_TYPE":"U","NORAD_CAT_ID":65782,"ELEMENT_SET_NO":999,"REV_AT_EPOCH":2408,"BSTAR":0.00072585,"MEAN_MOTION_DOT":5.297e-5,"MEAN_MOTION_DDOT":0},{"OBJECT_NAME":"KUIPER-00170","OBJECT_ID":"2025-217X","EPOCH":"2026-03-03T08:58:49.084608","MEAN_MOTION":14.79924611,"ECCENTRICITY":7.72e-5,"INCLINATION":51.8987,"RA_OF_ASC_NODE":66.0117,"ARG_OF_PERICENTER":81.6557,"MEAN_ANOMALY":278.4493,"EPHEMERIS_TYPE":0,"CLASSIFICATION_TYPE":"U","NORAD_CAT_ID":65783,"ELEMENT_SET_NO":999,"REV_AT_EPOCH":2401,"BSTAR":0.00052721,"MEAN_MOTION_DOT":3.799e-5,"MEAN_MOTION_DDOT":0},{"OBJECT_NAME":"KUIPER-00172","OBJECT_ID":"2025-217Z","EPOCH":"2026-03-03T12:00:00.998784","MEAN_MOTION":14.92066933,"ECCENTRICITY":0.000252,"INCLINATION":51.8944,"RA_OF_ASC_NODE":46.3668,"ARG_OF_PERICENTER":299.2401,"MEAN_ANOMALY":191.4944,"EPHEMERIS_TYPE":0,"CLASSIFICATION_TYPE":"U","NORAD_CAT_ID":65785,"ELEMENT_SET_NO":999,"REV_AT_EPOCH":278,"BSTAR":-0.15824,"MEAN_MOTION_DOT":-0.01497307,"MEAN_MOTION_DDOT":0},{"OBJECT_NAME":"KUIPER-00173","OBJECT_ID":"2025-217AA","EPOCH":"2026-03-03T09:58:46.128288","MEAN_MOTION":14.82255953,"ECCENTRICITY":0.0001409,"INCLINATION":51.9016,"RA_OF_ASC_NODE":60.1713,"ARG_OF_PERICENTER":131.7345,"MEAN_ANOMALY":228.3739,"EPHEMERIS_TYPE":0,"CLASSIFICATION_TYPE":"U","NORAD_CAT_ID":65786,"ELEMENT_SET_NO":999,"REV_AT_EPOCH":2409,"BSTAR":0.00021324,"MEAN_MOTION_DOT":1.493e-5,"MEAN_MOTION_DDOT":0},{"OBJECT_NAME":"KUIPER-00174","OBJECT_ID":"2025-217AB","EPOCH":"2026-03-03T08:26:17.370816","MEAN_MOTION":14.79934879,"ECCENTRICITY":5.93e-5,"INCLINATION":51.9031,"RA_OF_ASC_NODE":56.1498,"ARG_OF_PERICENTER":80.6654,"MEAN_ANOMALY":279.4375,"EPHEMERIS_TYPE":0,"CLASSIFICATION_TYPE":"U","NORAD_CAT_ID":65787,"ELEMENT_SET_NO":999,"REV_AT_EPOCH":2414,"BSTAR":-0.0029429,"MEAN_MOTION_DOT":-0.00022581,"MEAN_MOTION_DDOT":0},{"OBJECT_NAME":"KUIPER-00176","OBJECT_ID":"2025-217AC","EPOCH":"2026-03-03T09:39:58.635072","MEAN_MOTION":14.79983666,"ECCENTRICITY":8.85e-5,"INCLINATION":51.8995,"RA_OF_ASC_NODE":70.8988,"ARG_OF_PERICENTER":62.4412,"MEAN_ANOMALY":297.6641,"EPHEMERIS_TYPE":0,"CLASSIFICATION_TYPE":"U","NORAD_CAT_ID":65788,"ELEMENT_SET_NO":999,"REV_AT_EPOCH":2394,"BSTAR":0.00073,"MEAN_MOTION_DOT":5.355e-5,"MEAN_MOTION_DDOT":0},{"OBJECT_NAME":"KUIPER-00101","OBJECT_ID":"2025-228A","EPOCH":"2026-03-03T08:20:24.499392","MEAN_MOTION":14.79931306,"ECCENTRICITY":7.16e-5,"INCLINATION":51.8999,"RA_OF_ASC_NODE":28.6221,"ARG_OF_PERICENTER":113.0169,"MEAN_ANOMALY":247.0868,"EPHEMERIS_TYPE":0,"CLASSIFICATION_TYPE":"U","NORAD_CAT_ID":65947,"ELEMENT_SET_NO":999,"REV_AT_EPOCH":2229,"BSTAR":-0.00029717,"MEAN_MOTION_DOT":-2.486e-5,"MEAN_MOTION_DDOT":0},{"OBJECT_NAME":"KUIPER-00113","OBJECT_ID":"2025-228B","EPOCH":"2026-03-03T02:47:49.023168","MEAN_MOTION":14.79953844,"ECCENTRICITY":8.41e-5,"INCLINATION":51.8994,"RA_OF_ASC_NODE":24.6611,"ARG_OF_PERICENTER":89.2903,"MEAN_ANOMALY":270.8156,"EPHEMERIS_TYPE":0,"CLASSIFICATION_TYPE":"U","NORAD_CAT_ID":65948,"ELEMENT_SET_NO":999,"REV_AT_EPOCH":2232,"BSTAR":0.00079854,"MEAN_MOTION_DOT":5.875e-5,"MEAN_MOTION_DDOT":0},{"OBJECT_NAME":"KUIPER-00117","OBJECT_ID":"2025-228C","EPOCH":"2026-03-03T03:32:35.823840","MEAN_MOTION":14.79940698,"ECCENTRICITY":9.91e-5,"INCLINATION":51.8993,"RA_OF_ASC_NODE":27.0265,"ARG_OF_PERICENTER":79.1139,"MEAN_ANOMALY":280.9935,"EPHEMERIS_TYPE":0,"CLASSIFICATION_TYPE":"U","NORAD_CAT_ID":65949,"ELEMENT_SET_NO":999,"REV_AT_EPOCH":2229,"BSTAR":2.4522e-5,"MEAN_MOTION_DOT":-3.4e-7,"MEAN_MOTION_DDOT":0},{"OBJECT_NAME":"KUIPER-00121","OBJECT_ID":"2025-228D","EPOCH":"2026-03-03T07:43:22.745856","MEAN_MOTION":14.79929635,"ECCENTRICITY":0.0001322,"INCLINATION":51.901,"RA_OF_ASC_NODE":21.2503,"ARG_OF_PERICENTER":99.5126,"MEAN_ANOMALY":260.5986,"EPHEMERIS_TYPE":0,"CLASSIFICATION_TYPE":"U","NORAD_CAT_ID":65950,"ELEMENT_SET_NO":999,"REV_AT_EPOCH":2239,"BSTAR":0.00087972,"MEAN_MOTION_DOT":6.491e-5,"MEAN_MOTION_DDOT":0},{"OBJECT_NAME":"KUIPER-00122","OBJECT_ID":"2025-228E","EPOCH":"2026-03-03T02:34:21.800928","MEAN_MOTION":14.79810679,"ECCENTRICITY":9.73e-5,"INCLINATION":51.9015,"RA_OF_ASC_NODE":32.1635,"ARG_OF_PERICENTER":84.7942,"MEAN_ANOMALY":275.3132,"EPHEMERIS_TYPE":0,"CLASSIFICATION_TYPE":"U","NORAD_CAT_ID":65951,"ELEMENT_SET_NO":999,"REV_AT_EPOCH":2222,"BSTAR":-0.0017158,"MEAN_MOTION_DOT":-0.00013237,"MEAN_MOTION_DDOT":0},{"OBJECT_NAME":"KUIPER-00123","OBJECT_ID":"2025-228F","EPOCH":"2026-03-03T05:02:18.449664","MEAN_MOTION":14.79937341,"ECCENTRICITY":0.0001031,"INCLINATION":51.8995,"RA_OF_ASC_NODE":31.7465,"ARG_OF_PERICENTER":91.7301,"MEAN_ANOMALY":268.3779,"EPHEMERIS_TYPE":0,"CLASSIFICATION_TYPE":"U","NORAD_CAT_ID":65952,"ELEMENT_SET_NO":999,"REV_AT_EPOCH":2223,"BSTAR":0.00084191,"MEAN_MOTION_DOT":6.203e-5,"MEAN_MOTION_DDOT":0},{"OBJECT_NAME":"KUIPER-00124","OBJECT_ID":"2025-228G","EPOCH":"2026-03-03T01:59:13.393824","MEAN_MOTION":14.79938137,"ECCENTRICITY":0.0001078,"INCLINATION":51.8989,"RA_OF_ASC_NODE":24.7939,"ARG_OF_PERICENTER":102.0648,"MEAN_ANOMALY":258.0435,"EPHEMERIS_TYPE":0,"CLASSIFICATION_TYPE":"U","NORAD_CAT_ID":65953,"ELEMENT_SET_NO":999,"REV_AT_EPOCH":2232,"BSTAR":9.869e-6,"MEAN_MOTION_DOT":-1.46e-6,"MEAN_MOTION_DDOT":0},{"OBJECT_NAME":"KUIPER-00125","OBJECT_ID":"2025-228H","EPOCH":"2026-03-03T05:37:00.603264","MEAN_MOTION":14.79912808,"ECCENTRICITY":9.61e-5,"INCLINATION":51.9019,"RA_OF_ASC_NODE":9.15,"ARG_OF_PERICENTER":107.9676,"MEAN_ANOMALY":252.1391,"EPHEMERIS_TYPE":0,"CLASSIFICATION_TYPE":"U","NORAD_CAT_ID":65954,"ELEMENT_SET_NO":999,"REV_AT_EPOCH":2255,"BSTAR":0.00091026,"MEAN_MOTION_DOT":6.722e-5,"MEAN_MOTION_DDOT":0},{"OBJECT_NAME":"KUIPER-00126","OBJECT_ID":"2025-228J","EPOCH":"2026-03-03T02:40:05.024064","MEAN_MOTION":14.7994105,"ECCENTRICITY":0.0001022,"INCLINATION":51.8986,"RA_OF_ASC_NODE":29.6911,"ARG_OF_PERICENTER":99.6349,"MEAN_ANOMALY":260.4729,"EPHEMERIS_TYPE":0,"CLASSIFICATION_TYPE":"U","NORAD_CAT_ID":65955,"ELEMENT_SET_NO":999,"REV_AT_EPOCH":2225,"BSTAR":0.00031374,"MEAN_MOTION_DOT":2.172e-5,"MEAN_MOTION_DDOT":0}]
